[{"OBJECT_NAME":"STARLINK-33922","OBJECT_ID":"2025-087B","EPOCH":"2026-03-09T16:38:17.555136","MEAN_MOTION":15.3019444,"ECCENTRICITY":7.003e-5,"INCLINATION":53.1587,"RA_OF_ASC_NODE":219.2958,"ARG_OF_PERICENTER":65.32,"MEAN_ANOMALY":294.7873,"EPHEMERIS_TYPE":0,"CLASSIFICATION_TYPE":"U","NORAD_CAT_ID":63698,"ELEMENT_SET_NO":999,"REV_AT_EPOCH":4919,"BSTAR":0.00069519657,"MEAN_MOTION_DOT":0.00020283,"MEAN_MOTION_DDOT":0},{"OBJECT_NAME":"CZ-6A DEB","OBJECT_ID":"2024-140AAN","EPOCH":"2026-03-09T15:08:07.195776","MEAN_MOTION":15.20547394,"ECCENTRICITY":0.0064261,"INCLINATION":89.3669,"RA_OF_ASC_NODE":306.3092,"ARG_OF_PERICENTER":93.6352,"MEAN_ANOMALY":267.2246,"EPHEMERIS_TYPE":0,"CLASSIFICATION_TYPE":"U","NORAD_CAT_ID":61480,"ELEMENT_SET_NO":999,"REV_AT_EPOCH":8198,"BSTAR":0.0033609,"MEAN_MOTION_DOT":0.00078405,"MEAN_MOTION_DDOT":0}]
